$$SOE
2460721.500000000, A.D. 2025-Feb-15 00:00:00.0000, 3.337394414622595E+08, -2.888313675516958E+08, -9.117571553797874E+07,
2460728.500000000, A.D. 2025-Feb-22 00:00:00.0000, 3.406848025623376E+08, -2.807205561813277E+08, -9.043940904365785E+07,
2460735.500000000, A.D. 2025-Mar-01 00:00:00.0000, 3.474494155404117E+08, -2.724608631622856E+08, -8.965511752171417E+07,
2460742.500000000, A.D. 2025-Mar-08 00:00:00.0000, 3.540296190182400E+08, -2.640566109438377E+08, -8.882323790690103E+07,
2460749.500000000, A.D. 2025-Mar-15 00:00:00.0000, 3.604218667130673E+08, -2.555122148278488E+08, -8.794419752298906E+07,
2460756.500000000, A.D. 2025-Mar-22 00:00:00.0000, 3.666227283034237E+08, -2.468321789563000E+08, -8.701845351538777E+07,
2460763.500000000, A.D. 2025-Mar-29 00:00:00.0000, 3.726288915256968E+08, -2.380210944384114E+08, -8.604649255544247E+07,
2460770.500000000, A.D. 2025-Apr-05 00:00:00.0000, 3.784371658211353E+08, -2.290836364844367E+08, -8.502883059049086E+07,
2460777.500000000, A.D. 2025-Apr-12 00:00:00.0000, 3.840444856028222E+08, -2.200245604488683E+08, -8.396601245569360E+07,
2460784.500000000, A.D. 2025-Apr-19 00:00:00.0000, 3.894479129509394E+08, -2.108486976715282E+08, -8.285861140369758E+07,
2460791.500000000, A.D. 2025-Apr-26 00:00:00.0000, 3.946446400036805E+08, -2.015609513266996E+08, -8.170722859483418E+07,
2460798.500000000, A.D. 2025-May-03 00:00:00.0000, 3.996319911536593E+08, -1.921662922683654E+08, -8.051249255795328E+07,
2460805.500000000, A.D. 2025-May-10 00:00:00.0000, 4.044074250750593E+08, -1.826697548704261E+08, -7.927505862511095E+07,
2460812.500000000, A.D. 2025-May-17 00:00:00.0000, 4.089685366151596E+08, -1.730764329108034E+08, -7.799560834814852E+07,
2460819.500000000, A.D. 2025-May-24 00:00:00.0000, 4.133130587209411E+08, -1.633914755616850E+08, -7.667484891877212E+07,
2460826.500000000, A.D. 2025-May-31 00:00:00.0000, 4.174388648157709E+08, -1.536200831819635E+08, -7.531351260618235E+07,
2460833.500000000, A.D. 2025-Jun-07 00:00:00.0000, 4.213439712247922E+08, -1.437675017141859E+08, -7.391235607857290E+07,
2460840.500000000, A.D. 2025-Jun-14 00:00:00.0000, 4.250265372857367E+08, -1.338390163622499E+08, -7.247215944814533E+07,
2460847.500000000, A.D. 2025-Jun-21 00:00:00.0000, 4.284848643609418E+08, -1.238399478314286E+08, -7.099372542014349E+07,
2460854.500000000, A.D. 2025-Jun-28 00:00:00.0000, 4.317173968761158E+08, -1.137756493743835E+08, -6.947787868954584E+07,
2460861.500000000, A.D. 2025-Jul-05 00:00:00.0000, 4.347227238677409E+08, -1.036515024943783E+08, -6.792546527107915E+07,
2460868.500000000, A.D. 2025-Jul-12 00:00:00.0000, 4.374995798474002E+08, -9.347291211866620E+07, -6.633735172024243E+07,
2460875.500000000, A.D. 2025-Jul-19 00:00:00.0000, 4.400468451724012E+08, -8.324530182386285E+07, -6.471442431093878E+07,
2460882.500000000, A.D. 2025-Jul-26 00:00:00.0000, 4.423635461340351E+08, -7.297410917591299E+07, -6.305758819516633E+07,
2460889.500000000, A.D. 2025-Aug-02 00:00:00.0000, 4.444488548323050E+08, -6.266478116933063E+07, -6.136776655099910E+07,
2460896.500000000, A.D. 2025-Aug-09 00:00:00.0000, 4.463020888652703E+08, -5.232276978768221E+07, -5.964589972438584E+07,
2460903.500000000, A.D. 2025-Aug-16 00:00:00.0000, 4.479227109146542E+08, -4.195352775688297E+07, -5.789294437901627E+07,
2460910.500000000, A.D. 2025-Aug-23 00:00:00.0000, 4.493103285237007E+08, -3.156250448343517E+07, -5.610987268134096E+07,
2460917.500000000, A.D. 2025-Aug-30 00:00:00.0000, 4.504646943981785E+08, -2.115514147086825E+07, -5.429767149368551E+07,
2460924.500000000, A.D. 2025-Sep-06 00:00:00.0000, 4.513857058159841E+08, -1.073686621971572E+07, -5.245734136478145E+07,
2460931.500000000, A.D. 2025-Sep-13 00:00:00.0000, 4.520734014806394E+08, -3.130871007315069E+05, -5.058989536890164E+07,
2460938.500000000, A.D. 2025-Sep-20 00:00:00.0000, 4.525279590954823E+08, 1.011080914646021E+07, -4.869635822941139E+07,
2460945.500000000, A.D. 2025-Sep-27 00:00:00.0000, 4.527496947189044E+08, 2.052946039532266E+07, -4.677776557037953E+07,
2460952.500000000, A.D. 2025-Oct-04 00:00:00.0000, 4.527390618876132E+08, 3.093753312994259E+07, -4.483516306831105E+07,
2460959.500000000, A.D. 2025-Oct-11 00:00:00.0000, 4.524966501392108E+08, 4.132972651100311E+07, -4.286960554818688E+07,
2460966.500000000, A.D. 2025-Oct-18 00:00:00.0000, 4.520231832231724E+08, 5.170077623196000E+07, -4.088215607381372E+07,
2460973.500000000, A.D. 2025-Oct-25 00:00:00.0000, 4.513195171456833E+08, 6.204545817298364E+07, -3.887388504606916E+07,
2460980.500000000, A.D. 2025-Nov-01 00:00:00.0000, 4.503866380942075E+08, 7.235859186494769E+07, -3.684586931314474E+07,
2460987.500000000, A.D. 2025-Nov-08 00:00:00.0000, 4.492256602831767E+08, 8.263504372894096E+07, -3.479919130026231E+07,
2460994.500000000, A.D. 2025-Nov-15 00:00:00.0000, 4.478378238756478E+08, 9.286973002950396E+07, -3.273493817888505E+07,
2461001.500000000, A.D. 2025-Nov-22 00:00:00.0000, 4.462244933898313E+08, 1.030576197580823E+08, -3.065420109590017E+07,
2461008.500000000, A.D. 2025-Nov-29 00:00:00.0000, 4.443871564417399E+08, 1.131937385788703E+08, -2.855807435720709E+07,
2461015.500000000, A.D. 2025-Dec-06 00:00:00.0000, 4.423274205522276E+08, 1.232731737005899E+08, -2.644765436905127E+07,
2461022.500000000, A.D. 2025-Dec-13 00:00:00.0000, 4.400470084609733E+08, 1.332910763027768E+08, -2.432403865366057E+07,
2461029.500000000, A.D. 2025-Dec-20 00:00:00.0000, 4.375477554470301E+08, 1.432426625368444E+08, -2.218832517715832E+07,
2461036.500000000, A.D. 2025-Dec-27 00:00:00.0000, 4.348316075864830E+08, 1.531232156919999E+08, -2.004161168034077E+07,
2461043.500000000, A.D. 2026-Jan-03 00:00:00.0000, 4.319006194936127E+08, 1.629280889106221E+08, -1.788499492957265E+07,
2461050.500000000, A.D. 2026-Jan-10 00:00:00.0000, 4.287569516616119E+08, 1.726527077746187E+08, -1.571956995410322E+07,
2461057.500000000, A.D. 2026-Jan-17 00:00:00.0000, 4.254028676415846E+08, 1.822925726718931E+08, -1.354642929928382E+07,
2461064.500000000, A.D. 2026-Jan-24 00:00:00.0000, 4.218407311437895E+08, 1.918432609666797E+08, -1.136666230154786E+07,
2461071.500000000, A.D. 2026-Jan-31 00:00:00.0000, 4.180730030905492E+08, 2.013004289678690E+08, -9.181354388390273E+06,
2461078.500000000, A.D. 2026-Feb-07 00:00:00.0000, 4.141022386884468E+08, 2.106598136399208E+08, -6.991586414066002E+06,
2461085.500000000, A.D. 2026-Feb-14 00:00:00.0000, 4.099310847792982E+08, 2.199172340431057E+08, -4.798434055812106E+06,
2461092.500000000, A.D. 2026-Feb-21 00:00:00.0000, 4.055622778635640E+08, 2.290685930813395E+08, -2.602967259316936E+06,
2461099.500000000, A.D. 2026-Feb-28 00:00:00.0000, 4.009986417154087E+08, 2.381098807118856E+08, -4.062495399046391E+05,
2461106.500000000, A.D. 2026-Mar-07 00:00:00.0000, 3.962430825352882E+08, 2.470371766697899E+08, 1.790662890039310E+06,
2461113.500000000, A.D. 2026-Mar-14 00:00:00.0000, 3.912985844230242E+08, 2.558466503764690E+08, 3.986721722064555E+06,
2461120.500000000, A.D. 2026-Mar-21 00:00:00.0000, 3.861682069585311E+08, 2.645345609298930E+08, 6.180886954066053E+06,
2461127.500000000, A.D. 2026-Mar-28 00:00:00.0000, 3.808550828823034E+08, 2.730972582059413E+08, 8.372127362313643E+06,
2461134.500000000, A.D. 2026-Apr-04 00:00:00.0000, 3.753624152743998E+08, 2.815311841084957E+08, 1.055942101957189E+07,
2461141.500000000, A.D. 2026-Apr-11 00:00:00.0000, 3.696934745098294E+08, 2.898328736125257E+08, 1.274175580493814E+07,
2461148.500000000, A.D. 2026-Apr-18 00:00:00.0000, 3.638515951548072E+08, 2.979989555976878E+08, 1.491812989056657E+07,
2461155.500000000, A.D. 2026-Apr-25 00:00:00.0000, 3.578401728553337E+08, 3.060261534907067E+08, 1.708755220269383E+07,
2461162.500000000, A.D. 2026-May-02 00:00:00.0000, 3.516626612540256E+08, 3.139112856898052E+08, 1.924904285216355E+07,
2461169.500000000, A.D. 2026-May-09 00:00:00.0000, 3.453225690643120E+08, 3.216512657076332E+08, 2.140163351802540E+07,
2461176.500000000, A.D. 2026-May-16 00:00:00.0000, 3.388234576840744E+08, 3.292431021737859E+08, 2.354436776122312E+07,
2461183.500000000, A.D. 2026-May-23 00:00:00.0000, 3.321689394041010E+08, 3.366838997212751E+08, 2.567630134736249E+07,
2461190.500000000, A.D. 2026-May-30 00:00:00.0000, 3.253626741340499E+08, 3.439708610778850E+08, 2.779650279535078E+07,
2461197.500000000, A.D. 2026-Jun-06 00:00:00.0000, 3.184083643296183E+08, 3.511012870932150E+08, 2.990405391390693E+07,
2461204.500000000, A.D. 2026-Jun-13 00:00:00.0000, 3.113097517911460E+08, 3.580725749053487E+08, 3.199805000639002E+07,
2461211.500000000, A.D. 2026-Jun-20 00:00:00.0000, 3.040706158354492E+08, 3.648822171754172E+08, 3.407760002900058E+07,
2461218.500000000, A.D. 2026-Jun-27 00:00:00.0000, 2.966947711435117E+08, 3.715278020526580E+08, 3.614182683036770E+07,
2461225.500000000, A.D. 2026-Jul-04 00:00:00.0000, 2.891860652852660E+08, 3.780070130984724E+08, 3.818986740934460E+07,
2461232.500000000, A.D. 2026-Jul-11 00:00:00.0000, 2.815483761769766E+08, 3.843176290410454E+08, 4.022087315710880E+07,
2461239.500000000, A.D. 2026-Jul-18 00:00:00.0000, 2.737856095653878E+08, 3.904575233896132E+08, 4.223401007734346E+07,
2461246.500000000, A.D. 2026-Jul-25 00:00:00.0000, 2.659016965643118E+08, 3.964246639143895E+08, 4.422845898269886E+07,
2461253.500000000, A.D. 2026-Aug-01 00:00:00.0000, 2.579005912927565E+08, 4.022171119473365E+08, 4.620341565946862E+07,
2461260.500000000, A.D. 2026-Aug-08 00:00:00.0000, 2.497862688303575E+08, 4.078330214714109E+08, 4.815809097822061E+07,
2461267.500000000, A.D. 2026-Aug-15 00:00:00.0000, 2.415627239062939E+08, 4.132706384524189E+08, 5.009171094960320E+07,
2461274.500000000, A.D. 2026-Aug-22 00:00:00.0000, 2.332339695619440E+08, 4.185283016374893E+08, 5.200351689526427E+07,
2461281.500000000, A.D. 2026-Aug-29 00:00:00.0000, 2.248040334974457E+08, 4.236044434487043E+08, 5.389276583175716E+07,
2461288.500000000, A.D. 2026-Sep-05 00:00:00.0000, 2.162769542344799E+08, 4.284975881079306E+08, 5.575873063808504E+07,
$$EOE